NORAD_CAT_ID,OBJECT_NAME,OBJECT_TYPE,EPOCH,MEAN_MOTION,ECCENTRICITY,INCLINATION,RA_OF_ASC_NODE,ARG_OF_PERICENTER,MEAN_ANOMALY,BSTAR,MEAN_MOTION_DOT,MEAN_MOTION_DDOT,TLE_LINE0,TLE_LINE1,TLE_LINE2,SEMIMAJOR_AXIS,PERIOD,APOGEE,PERIGEE,DECAYED
53982.0,STARLINK-5120,PAYLOAD,2024-06-15 07:21:18,15.0884261,0.0001342,53.2167,173.0366,92.8213,267.2933,0.00010356,1.361e-05,0.0,0 STARLINK-5120,1 53982U 22125U   24167.30646298  .00001361  00000-0  10356-3 0  9996,2 53982  53.2167 173.0366 0001342  92.8213 267.2933 15.08842610 93980,6917.872,95.437,540.666,538.809,0.0
53982.0,STARLINK-5120,PAYLOAD,2024-06-16 07:12:05,15.08842471,0.0001289,53.2166,168.5773,94.2814,265.8326,1.189e-05,-9.9e-07,0.0,0 STARLINK-5120,1 53982U 22125U   24168.30006637 -.00000099  00000-0  11890-4 0  9997,2 53982  53.2166 168.5773 0001289  94.2814 265.8326 15.08842471 94136,6917.873,95.437,540.63,538.846,0.0
53982.0,STARLINK-5120,PAYLOAD,2024-06-16 16:44:24,15.08836672,0.0001387,53.2167,166.7932,93.9156,266.1995,6.4114e-05,7.33e-06,0.0,0 STARLINK-5120,1 53982U 22125U   24168.69750953  .00000733  00000-0  64114-4 0  9997,2 53982  53.2167 166.7932 0001387  93.9156 266.1995 15.08836672 94196,6917.891,95.438,540.715,538.796,0.0
53982.0,STARLINK-5120,PAYLOAD,2024-06-17 16:35:11,15.08837832,0.0001409,53.2169,162.3326,90.1066,270.0087,3.5911e-05,2.84e-06,0.0,0 STARLINK-5120,1 53982U 22125U   24169.69110990  .00000284  00000-0  35911-4 0  9993,2 53982  53.2169 162.3326 0001409  90.1066 270.0087 15.08837832 94343,6917.887,95.438,540.727,538.777,0.0
53982.0,STARLINK-5120,PAYLOAD,2024-06-18 08:29:03,15.08836092,0.0001417,53.2166,159.3587,88.4003,271.7152,4.3968e-05,4.12e-06,0.0,0 STARLINK-5120,1 53982U 22125U   24170.35351243  .00000412  00000-0  43968-4 0  9990,2 53982  53.2166 159.3587 0001417  88.4003 271.7152 15.08836092 94523,6917.892,95.438,540.738,538.777,0.0
53982.0,STARLINK-5120,PAYLOAD,2024-06-18 16:25:59,15.08838248,0.0001423,53.2168,157.8719,88.7857,271.3299,6.5731e-05,7.58e-06,0.0,0 STARLINK-5120,1 53982U 22125U   24170.68471079  .00000758  00000-0  65731-4 0  9991,2 53982  53.2168 157.8719 0001423  88.7857 271.3299 15.08838248 94491,6917.886,95.438,540.735,538.766,0.0
53982.0,STARLINK-5120,PAYLOAD,2024-06-19 06:44:26,15.08842889,0.00014,53.2166,155.1955,89.3244,270.7908,8.531e-05,1.07e-05,0.0,0 STARLINK-5120,1 53982U 22125U   24171.28086726  .00001070  00000-0  85310-4 0  9992,2 53982  53.2166 155.1955 0001400  89.3244 270.7908 15.08842889 94669,6917.872,95.437,540.705,538.768,0.0
53982.0,STARLINK-5120,PAYLOAD,2024-06-19 16:16:46,15.0883788,0.0001378,53.2164,153.411,89.1824,270.9326,3.9261e-05,3.37e-06,0.0,0 STARLINK-5120,1 53982U 22125U   24171.67831165  .00000337  00000-0  39261-4 0  9999,2 53982  53.2164 153.4110 0001378  89.1824 270.9326 15.08837880 94725,6917.887,95.438,540.705,538.799,0.0
53982.0,STARLINK-5120,PAYLOAD,2024-06-20 08:10:37,15.08838789,0.0001408,53.2165,150.4367,90.2474,269.8679,4.8548e-05,4.85e-06,0.0,0 STARLINK-5120,1 53982U 22125U   24172.34071185  .00000485  00000-0  48548-4 0  9994,2 53982  53.2165 150.4367 0001408  90.2474 269.8679 15.08838789 94744,6917.884,95.438,540.723,538.775,0.0
53982.0,STARLINK-5120,PAYLOAD,2024-06-20 16:07:33,15.08840382,0.000141,53.2165,148.9501,89.7467,270.3687,5.1332e-05,5.29e-06,0.0,0 STARLINK-5120,1 53982U 22125U   24172.67191094  .00000529  00000-0  51332-4 0  9996,2 53982  53.2165 148.9501 0001410  89.7467 270.3687 15.08840382 94797,6917.879,95.438,540.72,538.769,0.0
53982.0,STARLINK-5120,PAYLOAD,2024-06-21 04:50:37,15.0884226,0.0001471,53.2177,146.5703,93.2462,266.8698,7.4371e-05,8.96e-06,0.0,0 STARLINK-5120,1 53982U 22125U   24173.20182799  .00000896  00000-0  74371-4 0  9993,2 53982  53.2177 146.5703 0001471  93.2462 266.8698 15.08842260 94957,6917.873,95.437,540.756,538.721,0.0
53982.0,STARLINK-5120,PAYLOAD,2024-06-21 08:01:24,15.08842809,0.0001475,53.2177,145.9756,93.3397,266.7764,7.7381e-05,9.44e-06,0.0,0 STARLINK-5120,1 53982U 22125U   24173.33430741  .00000944  00000-0  77381-4 0  9998,2 53982  53.2177 145.9756 0001475  93.3397 266.7764 15.08842809 94895,6917.872,95.437,540.757,538.716,0.0
53982.0,STARLINK-5120,PAYLOAD,2024-06-22 04:41:25,15.08834868,0.0001493,53.2177,142.1088,96.9557,263.1605,2.0968e-05,4.6e-07,0.0,0 STARLINK-5120,1 53982U 22125U   24174.19543543  .00000046  00000-0  20968-4 0  9990,2 53982  53.2177 142.1088 0001493  96.9557 263.1605 15.08834868 95105,6917.896,95.438,540.794,538.728,0.0
53982.0,STARLINK-5120,PAYLOAD,2024-06-22 07:52:11,15.08834427,0.0001492,53.2177,141.5144,95.8899,264.2263,1.4399e-05,-5.9e-07,0.0,0 STARLINK-5120,1 53982U 22125U   24174.32791634 -.00000059  00000-0  14399-4 0  9997,2 53982  53.2177 141.5144 0001492  95.8899 264.2263 15.08834427 95043,6917.897,95.438,540.795,538.73,0.0
53982.0,STARLINK-5120,PAYLOAD,2024-06-23 07:42:58,15.08840703,0.0001539,53.2182,137.0544,99.0697,261.0469,3.1407e-05,2.12e-06,0.0,0 STARLINK-5120,1 53982U 22125U   24175.32151250  .00000212  00000-0  31407-4 0  9991,2 53982  53.2182 137.0544 0001539  99.0697 261.0469 15.08840703 95279,6917.878,95.438,540.808,538.679,0.0
53982.0,STARLINK-5120,PAYLOAD,2024-06-23 22:01:27,15.08833907,0.0001481,53.2178,134.3784,99.4623,260.6537,3.6268e-05,2.89e-06,0.0,0 STARLINK-5120,1 53982U 22125U   24175.91767775  .00000289  00000-0  36268-4 0  9995,2 53982  53.2178 134.3784 0001481  99.4623 260.6537 15.08833907 95289,6917.899,95.438,540.789,538.739,0.0
53982.0,STARLINK-5120,PAYLOAD,2024-06-24 02:47:36,15.08834808,0.0001466,53.2177,133.4863,99.1963,260.9195,4.0609e-05,3.58e-06,0.0,0 STARLINK-5120,1 53982U 22125U   24176.11639768  .00000358  00000-0  40609-4 0  9999,2 53982  53.2177 133.4863 0001466  99.1963 260.9195 15.08834808 95399,6917.896,95.438,540.775,538.747,0.0
53982.0,STARLINK-5120,PAYLOAD,2024-06-24 07:33:46,15.08835786,0.0001474,53.2177,132.5942,99.8849,260.231,4.6693e-05,4.55e-06,0.0,0 STARLINK-5120,1 53982U 22125U   24176.31511744  .00000455  00000-0  46693-4 0  9991,2 53982  53.2177 132.5942 0001474  99.8849 260.2310 15.08835786 95349,6917.893,95.438,540.778,538.739,0.0
53982.0,STARLINK-5120,PAYLOAD,2024-06-25 04:13:47,15.08837178,0.0001517,53.218,128.7273,90.3512,269.7654,2.7229e-05,1.45e-06,0.0,0 STARLINK-5120,1 53982U 22125U   24177.17624068  .00000145  00000-0  27229-4 0  9990,2 53982  53.2180 128.7273 0001517  90.3512 269.7654 15.08837178 95553,6917.889,95.438,540.803,538.705,0.0
53982.0,STARLINK-5120,PAYLOAD,2024-06-26 04:04:33,15.08844473,0.0001527,53.2176,124.2654,81.9453,278.1713,0.00012522,1.706e-05,0.0,0 STARLINK-5120,1 53982U 22125U   24178.16983458  .00001706  00000-0  12522-3 0  9994,2 53982  53.2176 124.2654 0001527  81.9453 278.1713 15.08844473 95706,6917.867,95.437,540.788,538.675,0.0
53982.0,STARLINK-5120,PAYLOAD,2024-06-27 02:19:58,15.08838607,0.0001633,53.218,120.1052,77.9797,282.1378,3.6388e-05,2.91e-06,0.0,0 STARLINK-5120,1 53982U 22125U   24179.09720365  .00000291  00000-0  36388-4 0  9998,2 53982  53.2180 120.1052 0001633  77.9797 282.1378 15.08838607 95841,6917.885,95.438,540.879,538.62,0.0
53982.0,STARLINK-5120,PAYLOAD,2024-06-27 13:27:40,15.08841087,0.0001589,53.218,118.0265,85.0738,275.0436,5.0461e-05,5.15e-06,0.0,0 STARLINK-5120,1 53982U 22125U   24179.56088250  .00000515  00000-0  50461-4 0  9997,2 53982  53.2180 118.0265 0001589  85.0738 275.0436 15.08841087 95839,6917.877,95.437,540.841,538.643,0.0
53982.0,STARLINK-5120,PAYLOAD,2024-06-28 13:18:26,15.08855858,0.0001473,53.2172,113.5648,98.5171,261.5988,3.9298e-05,3.38e-06,0.0,0 STARLINK-5120,1 53982U 22125U   24180.55447019  .00000338  00000-0  39298-4 0  9998,2 53982  53.2172 113.5648 0001473  98.5171 261.5988 15.08855858 95986,6917.832,95.437,540.716,538.678,0.0
53982.0,STARLINK-5120,PAYLOAD,2024-06-28 22:50:44,15.08850864,0.0001446,53.2171,111.7809,95.6494,264.4663,0.00015725,2.216e-05,0.0,0 STARLINK-5120,1 53982U 22125U   24180.95190958  .00002216  00000-0  15725-3 0  9994,2 53982  53.2171 111.7809 0001446  95.6494 264.4663 15.08850864 96042,6917.847,95.437,540.713,538.712,0.0
53982.0,STARLINK-5120,PAYLOAD,2024-06-29 05:12:16,15.08865586,0.0001402,53.2172,110.5907,101.3827,258.7322,0.00028546,4.261e-05,0.0,0 STARLINK-5120,1 53982U 22125U   24181.21685584  .00004261  00000-0  28546-3 0  9995,2 53982  53.2172 110.5907 0001402 101.3827 258.7322 15.08865586 96164,6917.802,95.436,540.637,538.697,0.0
53982.0,STARLINK-5120,PAYLOAD,2024-06-29 19:30:47,15.0882879,0.0001606,53.2159,107.915,87.926,272.1916,-0.00014471,-2.59e-05,0.0,0 STARLINK-5120,1 53982U 22125U   24181.81304488 -.00002590  00000-0 -14471-3 0  9999,2 53982  53.2159 107.9150 0001606  87.9260 272.1916 15.08828790 96250,6917.915,95.438,540.891,538.669,0.0
53982.0,STARLINK-5120,PAYLOAD,2024-06-29 22:41:33,15.08825189,0.0001397,53.2165,107.3196,97.9707,262.1443,-0.00019497,-3.388e-05,0.0,0 STARLINK-5120,1 53982U 22125U   24181.94552694 -.00003388  00000-0 -19497-3 0  9996,2 53982  53.2165 107.3196 0001397  97.9707 262.1443 15.08825189 96191,6917.926,95.438,540.757,538.824,0.0
53982.0,STARLINK-5120,PAYLOAD,2024-06-30 11:24:38,15.08832603,0.000144,53.2164,104.9426,87.3316,272.7841,-7.6515e-05,-1.505e-05,0.0,0 STARLINK-5120,1 53982U 22125U   24182.47544711 -.00001505  00000-0 -76515-4 0  9990,2 53982  53.2164 104.9426 0001440  87.3316 272.7841 15.08832603 96274,6917.903,95.438,540.764,538.772,0.0
53982.0,STARLINK-5120,PAYLOAD,2024-06-30 22:32:20,15.08843247,0.0001256,53.2169,102.859,88.2208,271.8927,8.0891e-05,1e-05,0.0,0 STARLINK-5120,1 53982U 22125U   24182.93912264  .00001000  00000-0  80891-4 0  9993,2 53982  53.2169 102.8590 0001256  88.2208 271.8927 15.08843247 96342,6917.87,95.437,540.604,538.867,0.0
53982.0,STARLINK-5120,PAYLOAD,2024-07-01 01:43:06,15.08851244,0.0001235,53.216,102.2656,84.4678,275.6455,0.00042095,6.42e-05,0.0,0 STARLINK-5120,1 53982U 22125U   24183.07160140  .00006420  00000-0  42095-3 0  9991,2 53982  53.2160 102.2656 0001235  84.4678 275.6455 15.08851244 96441,6917.846,95.437,540.565,538.857,0.0
